[{"OBJECT_NAME":"STARLINK-4480","OBJECT_ID":"2022-097AE","EPOCH":"2026-03-09T09:52:37.352352","MEAN_MOTION":15.08837317,"ECCENTRICITY":0.00013366,"INCLINATION":53.2167,"RA_OF_ASC_NODE":115.3182,"ARG_OF_PERICENTER":89.8624,"MEAN_ANOMALY":270.2522,"EPHEMERIS_TYPE":0,"CLASSIFICATION_TYPE":"U","NORAD_CAT_ID":53416,"ELEMENT_SET_NO":999,"REV_AT_EPOCH":19858,"BSTAR":-2.9827175e-5,"MEAN_MOTION_DOT":-7.63e-6,"MEAN_MOTION_DDOT":0},{"OBJECT_NAME":"LEMUR-2-MARHISYAM","OBJECT_ID":"2024-149BW","EPOCH":"2026-03-09T17:46:07.876416","MEAN_MOTION":15.0901552,"ECCENTRICITY":0.00035778,"INCLINATION":97.6912,"RA_OF_ASC_NODE":151.2662,"ARG_OF_PERICENTER":107.3271,"MEAN_ANOMALY":252.8349,"EPHEMERIS_TYPE":0,"CLASSIFICATION_TYPE":"U","NORAD_CAT_ID":60536,"ELEMENT_SET_NO":999,"REV_AT_EPOCH":8547,"BSTAR":0.00082973442,"MEAN_MOTION_DOT":0.00013075,"MEAN_MOTION_DDOT":0}]
