STARLINK-4480           
1 53416U 22097AE  26068.41154343 -.00000763  00000+0 -29827-4 0  9995
2 53416  53.2167 115.3182 0001336  89.8624 270.2522 15.08837317198580
LEMUR-2-MARHISYAM       
1 60536U 24149BW  26068.74036894  .00013075  00000+0  82973-3 0  9990
2 60536  97.6912 151.2662 0003578 107.3271 252.8349 15.09015520 85478
